{"fetched_at":"2026-03-29T16:36:15Z","count":15609,"tles":[{"name":"STARLINK-5018","line1":"1 53929U 22119AV  26087.66264868 -.00000389  00000+0 -63852-5 0  9992","line2":"2 53929  53.2178 229.3230 0001164  88.9141 271.1984 15.08839162194683","category":"Starlink"}]}